[
  {
    "OBJECT_NAME": "STARLINK-2634",
    "OBJECT_ID": "21040T",
    "EPOCH": "2025-11-11T07:12:12.164256",
    "MEAN_MOTION": 15.06400157,
    "ECCENTRICITY": 0.0001623,
    "INCLINATION": 53.0555,
    "RA_OF_ASC_NODE": 353.0917,
    "ARG_OF_PERICENTER": 86.1159,
    "MEAN_ANOMALY": 274.0016,
    "EPHEMERIS_TYPE": 0,
    "CLASSIFICATION_TYPE": "U",
    "NORAD_CAT_ID": 48445,
    "ELEMENT_SET_NO": 999,
    "REV_AT_EPOCH": 24878,
    "BSTAR": 0.0,
    "MEAN_MOTION_DOT": -4.48e-06,
    "MEAN_MOTION_DDOT": 0.0,
    "TLE_LINE1": "1 48445U 21040T   25315.30014079 -.00000448  00000+0 -11152-4 0  9993",
    "TLE_LINE2": "2 48445  53.0555 353.0917 0001623  86.1159 274.0016 15.06400157248788",
    "COMMENT": "Grouped by shell and plane from TLE"
  },
  {
    "OBJECT_NAME": "STARLINK-2655",
    "OBJECT_ID": "21040X",
    "EPOCH": "2025-11-11T06:56:16.654560",
    "MEAN_MOTION": 15.06399698,
    "ECCENTRICITY": 0.0001582,
    "INCLINATION": 53.057,
    "RA_OF_ASC_NODE": 353.1394,
    "ARG_OF_PERICENTER": 113.8034,
    "MEAN_ANOMALY": 246.3121,
    "EPHEMERIS_TYPE": 0,
    "CLASSIFICATION_TYPE": "U",
    "NORAD_CAT_ID": 48449,
    "ELEMENT_SET_NO": 999,
    "REV_AT_EPOCH": 24878,
    "BSTAR": 5.832000000000001e-05,
    "MEAN_MOTION_DOT": 5.87e-06,
    "MEAN_MOTION_DDOT": 0.0,
    "TLE_LINE1": "1 48449U 21040X   25315.28908165  .00000587  00000+0  58320-4 0  9992",
    "TLE_LINE2": "2 48449  53.0570 353.1394 0001582 113.8034 246.3121 15.06399698248789",
    "COMMENT": "Grouped by shell and plane from TLE"
  },
  {
    "OBJECT_NAME": "STARLINK-2703",
    "OBJECT_ID": "21040AA",
    "EPOCH": "2025-11-11T06:45:39.890880",
    "MEAN_MOTION": 15.06399898,
    "ECCENTRICITY": 0.0001417,
    "INCLINATION": 53.055,
    "RA_OF_ASC_NODE": 353.1431,
    "ARG_OF_PERICENTER": 85.1908,
    "MEAN_ANOMALY": 274.9243,
    "EPHEMERIS_TYPE": 0,
    "CLASSIFICATION_TYPE": "U",
    "NORAD_CAT_ID": 48452,
    "ELEMENT_SET_NO": 999,
    "REV_AT_EPOCH": 24878,
    "BSTAR": 0.0001462,
    "MEAN_MOTION_DOT": 1.897e-05,
    "MEAN_MOTION_DDOT": 0.0,
    "TLE_LINE1": "1 48452U 21040AA  25315.28171170  .00001897  00000+0  14620-3 0  9993",
    "TLE_LINE2": "2 48452  53.0550 353.1431 0001417  85.1908 274.9243 15.06399898248785",
    "COMMENT": "Grouped by shell and plane from TLE"
  },
  {
    "OBJECT_NAME": "STARLINK-2620",
    "OBJECT_ID": "21040AB",
    "EPOCH": "2025-11-11T06:40:21.378144",
    "MEAN_MOTION": 15.06395056,
    "ECCENTRICITY": 0.0001647,
    "INCLINATION": 53.0561,
    "RA_OF_ASC_NODE": 353.1884,
    "ARG_OF_PERICENTER": 94.2501,
    "MEAN_ANOMALY": 265.8677,
    "EPHEMERIS_TYPE": 0,
    "CLASSIFICATION_TYPE": "U",
    "NORAD_CAT_ID": 48453,
    "ELEMENT_SET_NO": 999,
    "REV_AT_EPOCH": 24878,
    "BSTAR": 0.0,
    "MEAN_MOTION_DOT": -1.431e-05,
    "MEAN_MOTION_DDOT": 0.0,
    "TLE_LINE1": "1 48453U 21040AB  25315.27802521 -.00001431  00000+0 -77176-4 0  9996",
    "TLE_LINE2": "2 48453  53.0561 353.1884 0001647  94.2501 265.8677 15.06395056248787",
    "COMMENT": "Grouped by shell and plane from TLE"
  },
  {
    "OBJECT_NAME": "STARLINK-2654",
    "OBJECT_ID": "21040AC",
    "EPOCH": "2025-11-11T06:35:02.794560",
    "MEAN_MOTION": 15.06404929,
    "ECCENTRICITY": 0.0001906,
    "INCLINATION": 53.0549,
    "RA_OF_ASC_NODE": 353.202,
    "ARG_OF_PERICENTER": 114.8223,
    "MEAN_ANOMALY": 245.2964,
    "EPHEMERIS_TYPE": 0,
    "CLASSIFICATION_TYPE": "U",
    "NORAD_CAT_ID": 48454,
    "ELEMENT_SET_NO": 999,
    "REV_AT_EPOCH": 24878,
    "BSTAR": 0.00015791,
    "MEAN_MOTION_DOT": 2.071e-05,
    "MEAN_MOTION_DDOT": 0.0,
    "TLE_LINE1": "1 48454U 21040AC  25315.27433790  .00002071  00000+0  15791-3 0  9998",
    "TLE_LINE2": "2 48454  53.0549 353.2020 0001906 114.8223 245.2964 15.06404929248786",
    "COMMENT": "Grouped by shell and plane from TLE"
  },
  {
    "OBJECT_NAME": "STARLINK-2497",
    "OBJECT_ID": "21040AD",
    "EPOCH": "2025-11-11T06:29:44.284416",
    "MEAN_MOTION": 15.06402768,
    "ECCENTRICITY": 0.0001687,
    "INCLINATION": 53.0563,
    "RA_OF_ASC_NODE": 353.2216,
    "ARG_OF_PERICENTER": 106.8967,
    "MEAN_ANOMALY": 253.2207,
    "EPHEMERIS_TYPE": 0,
    "CLASSIFICATION_TYPE": "U",
    "NORAD_CAT_ID": 48455,
    "ELEMENT_SET_NO": 999,
    "REV_AT_EPOCH": 24877,
    "BSTAR": 9.4682e-05,
    "MEAN_MOTION_DOT": 1.129e-05,
    "MEAN_MOTION_DDOT": 0.0,
    "TLE_LINE1": "1 48455U 21040AD  25315.27065144  .00001129  00000+0  94682-4 0  9993",
    "TLE_LINE2": "2 48455  53.0563 353.2216 0001687 106.8967 253.2207 15.06402768248779",
    "COMMENT": "Grouped by shell and plane from TLE"
  },
  {
    "OBJECT_NAME": "STARLINK-2698",
    "OBJECT_ID": "21040AG",
    "EPOCH": "2025-11-11T06:42:22.205088",
    "MEAN_MOTION": 15.06428163,
    "ECCENTRICITY": 0.0001528,
    "INCLINATION": 53.0552,
    "RA_OF_ASC_NODE": 358.2707,
    "ARG_OF_PERICENTER": 76.3103,
    "MEAN_ANOMALY": 283.8056,
    "EPHEMERIS_TYPE": 0,
    "CLASSIFICATION_TYPE": "U",
    "NORAD_CAT_ID": 48458,
    "ELEMENT_SET_NO": 999,
    "REV_AT_EPOCH": 24942,
    "BSTAR": 0.001252,
    "MEAN_MOTION_DOT": 0.00018431,
    "MEAN_MOTION_DDOT": 0.0,
    "TLE_LINE1": "1 48458U 21040AG  25315.27942367  .00018431  00000+0  12520-2 0  9990",
    "TLE_LINE2": "2 48458  53.0552 358.2707 0001528  76.3103 283.8056 15.06428163249428",
    "COMMENT": "Grouped by shell and plane from TLE"
  },
  {
    "OBJECT_NAME": "STARLINK-2579",
    "OBJECT_ID": "21040AH",
    "EPOCH": "2025-11-11T06:31:47.756928",
    "MEAN_MOTION": 15.06398265,
    "ECCENTRICITY": 0.0001474,
    "INCLINATION": 53.0544,
    "RA_OF_ASC_NODE": 358.5702,
    "ARG_OF_PERICENTER": 94.8448,
    "MEAN_ANOMALY": 265.2709,
    "EPHEMERIS_TYPE": 0,
    "CLASSIFICATION_TYPE": "U",
    "NORAD_CAT_ID": 48459,
    "ELEMENT_SET_NO": 999,
    "REV_AT_EPOCH": 24871,
    "BSTAR": 0.00013475000000000002,
    "MEAN_MOTION_DOT": 1.726e-05,
    "MEAN_MOTION_DDOT": 0.0,
    "TLE_LINE1": "1 48459U 21040AH  25315.27208052  .00001726  00000+0  13475-3 0  9997",
    "TLE_LINE2": "2 48459  53.0544 358.5702 0001474  94.8448 265.2709 15.06398265248714",
    "COMMENT": "Grouped by shell and plane from TLE"
  },
  {
    "OBJECT_NAME": "STARLINK-3278",
    "OBJECT_ID": "22001AD",
    "EPOCH": "2025-11-11T06:42:09.626976",
    "MEAN_MOTION": 15.08842004,
    "ECCENTRICITY": 0.0001342,
    "INCLINATION": 53.2185,
    "RA_OF_ASC_NODE": 350.6849,
    "ARG_OF_PERICENTER": 91.2529,
    "MEAN_ANOMALY": 268.8617,
    "EPHEMERIS_TYPE": 0,
    "CLASSIFICATION_TYPE": "U",
    "NORAD_CAT_ID": 50830,
    "ELEMENT_SET_NO": 999,
    "REV_AT_EPOCH": 21239,
    "BSTAR": 7.0416e-05,
    "MEAN_MOTION_DOT": 8.33e-06,
    "MEAN_MOTION_DDOT": 0.0,
    "TLE_LINE1": "1 50830U 22001AD  25315.27927809  .00000833  00000+0  70416-4 0  9996",
    "TLE_LINE2": "2 50830  53.2185 350.6849 0001342  91.2529 268.8617 15.08842004212392",
    "COMMENT": "Grouped by shell and plane from TLE"
  },
  {
    "OBJECT_NAME": "STARLINK-3328",
    "OBJECT_ID": "22001AF",
    "EPOCH": "2025-11-11T06:43:33.019392",
    "MEAN_MOTION": 15.08839263,
    "ECCENTRICITY": 0.0001446,
    "INCLINATION": 53.2194,
    "RA_OF_ASC_NODE": 350.7297,
    "ARG_OF_PERICENTER": 92.8629,
    "MEAN_ANOMALY": 267.2529,
    "EPHEMERIS_TYPE": 0,
    "CLASSIFICATION_TYPE": "U",
    "NORAD_CAT_ID": 50832,
    "ELEMENT_SET_NO": 999,
    "REV_AT_EPOCH": 21239,
    "BSTAR": 2.219e-05,
    "MEAN_MOTION_DOT": 6.5e-07,
    "MEAN_MOTION_DDOT": 0.0,
    "TLE_LINE1": "1 50832U 22001AF  25315.28024328  .00000065  00000+0  22190-4 0  9996",
    "TLE_LINE2": "2 50832  53.2194 350.7297 0001446  92.8629 267.2529 15.08839263212393",
    "COMMENT": "Grouped by shell and plane from TLE"
  },
  {
    "OBJECT_NAME": "STARLINK-3331",
    "OBJECT_ID": "22001AH",
    "EPOCH": "2025-11-11T06:20:58.050528",
    "MEAN_MOTION": 15.0883459,
    "ECCENTRICITY": 0.0001397,
    "INCLINATION": 53.2193,
    "RA_OF_ASC_NODE": 350.7569,
    "ARG_OF_PERICENTER": 95.4468,
    "MEAN_ANOMALY": 264.6683,
    "EPHEMERIS_TYPE": 0,
    "CLASSIFICATION_TYPE": "U",
    "NORAD_CAT_ID": 50834,
    "ELEMENT_SET_NO": 999,
    "REV_AT_EPOCH": 21238,
    "BSTAR": 1.4182e-05,
    "MEAN_MOTION_DOT": -6.2e-07,
    "MEAN_MOTION_DDOT": 0.0,
    "TLE_LINE1": "1 50834U 22001AH  25315.26456077 -.00000062  00000+0  14182-4 0  9996",
    "TLE_LINE2": "2 50834  53.2193 350.7569 0001397  95.4468 264.6683 15.08834590212380",
    "COMMENT": "Grouped by shell and plane from TLE"
  },
  {
    "OBJECT_NAME": "STARLINK-3310",
    "OBJECT_ID": "22001AJ",
    "EPOCH": "2025-11-11T06:26:17.506752",
    "MEAN_MOTION": 15.08858965,
    "ECCENTRICITY": 0.0001336,
    "INCLINATION": 53.2169,
    "RA_OF_ASC_NODE": 350.8493,
    "ARG_OF_PERICENTER": 86.5046,
    "MEAN_ANOMALY": 273.6099,
    "EPHEMERIS_TYPE": 0,
    "CLASSIFICATION_TYPE": "U",
    "NORAD_CAT_ID": 50835,
    "ELEMENT_SET_NO": 999,
    "REV_AT_EPOCH": 21238,
    "BSTAR": 0.00076111,
    "MEAN_MOTION_DOT": 0.00011852,
    "MEAN_MOTION_DDOT": 0.0,
    "TLE_LINE1": "1 50835U 22001AJ  25315.26825818  .00011852  00000+0  76111-3 0  9997",
    "TLE_LINE2": "2 50835  53.2169 350.8493 0001336  86.5046 273.6099 15.08858965212380",
    "COMMENT": "Grouped by shell and plane from TLE"
  },
  {
    "OBJECT_NAME": "STARLINK-3330",
    "OBJECT_ID": "22001AK",
    "EPOCH": "2025-11-11T05:55:48.347040",
    "MEAN_MOTION": 15.08841272,
    "ECCENTRICITY": 0.0001426,
    "INCLINATION": 53.2175,
    "RA_OF_ASC_NODE": 350.6071,
    "ARG_OF_PERICENTER": 93.7914,
    "MEAN_ANOMALY": 266.3242,
    "EPHEMERIS_TYPE": 0,
    "CLASSIFICATION_TYPE": "U",
    "NORAD_CAT_ID": 50836,
    "ELEMENT_SET_NO": 999,
    "REV_AT_EPOCH": 21228,
    "BSTAR": 6.2668e-05,
    "MEAN_MOTION_DOT": 7.1e-06,
    "MEAN_MOTION_DDOT": 0.0,
    "TLE_LINE1": "1 50836U 22001AK  25315.24708735  .00000710  00000+0  62668-4 0  9998",
    "TLE_LINE2": "2 50836  53.2175 350.6071 0001426  93.7914 266.3242 15.08841272212283",
    "COMMENT": "Grouped by shell and plane from TLE"
  }
]